GLOBALSTAR M023         
1 25621U 99004A   24281.82002062 -.00000009  00000+0  52754-3 0  9990
2 25621  52.0096 101.8941 0009190 291.4173 198.2333 12.62478073183854
GLOBALSTAR M040         
1 25622U 99004B   24281.82955334 -.00000072  00000+0  17905-3 0  9999
2 25622  51.9897 105.6423 0000969 136.7938 237.0931 12.61985732183393
GLOBALSTAR M036         
1 25623U 99004C   24281.84087434 -.00000130  00000+0 -68814-3 0  9990
2 25623  51.9965 185.4414 0010281 291.7346 153.6772 11.86578347149001
GLOBALSTAR M038         
1 25624U 99004D   24281.71320775 -.00000052  00000+0  35230-3 0  9993
2 25624  51.9964  78.6559 0001155 225.4141 148.4773 12.32509908171244
GLOBALSTAR M046         
1 25651U 99012C   24281.85427101 -.00000073  00000+0  16806-3 0  9999
2 25651  52.0043 216.1978 0002619  96.7761 313.1727 12.09397809153138
GLOBALSTAR M037         
1 25652U 99012D   24281.84466942 -.00000040  00000+0  35322-3 0  9993
2 25652  51.9993 232.5295 0002197   0.9048  31.1680 12.62420359179400
